SENTINEL-5P             
1 42969U 17064A   26190.26397104  .00000013  00000+0  27045-4 0  9993
2 42969  98.7929 132.2387 0001092  91.8163 268.3138 14.19522668452693
